OBJECT_NAME,OBJECT_ID,EPOCH,MEAN_MOTION,ECCENTRICITY,INCLINATION,RA_OF_ASC_NODE,ARG_OF_PERICENTER,MEAN_ANOMALY,EPHEMERIS_TYPE,CLASSIFICATION_TYPE,NORAD_CAT_ID,ELEMENT_SET_NO,REV_AT_EPOCH,BSTAR,MEAN_MOTION_DOT,MEAN_MOTION_DDOT
SUOMI NPP,2011-061A,2026-06-25T05:38:22.153632,14.19518984,.0001073,98.7954,117.0560,344.6382,15.4761,0,U,37849,999,75958,.51113139E-4,.63E-6,0
YAOGAN-12,2011-066B,2026-06-25T06:17:44.580192,15.26688286,.00096267,97.1144,214.4514,185.2194,174.8947,0,U,37875,999,81327,.29831563E-3,.7773E-4,0
BEIDOU-2 M4,2012-018B,2026-06-23T13:32:51.775296,1.86229575,.00116283,55.6516,303.8740,274.1207,85.7373,0,U,38251,999,9606,0,-.108E-5,0
ARIRANG-3 (KOMPSAT-3),2012-025B,2026-06-25T05:51:53.108352,14.62212513,.00068216,98.1174,133.5654,89.3323,270.8660,0,U,38338,999,75252,.85937214E-4,.386E-5,0
HORYU-2,2012-025D,2026-06-25T07:00:26.266752,14.91111712,.00088098,98.2179,309.5603,149.3303,210.8431,0,U,38340,999,74993,.32649901E-3,.3178E-4,0
CSSWE,2012-048D,2026-06-25T01:28:31.825344,15.44820503,.00458073,64.6633,66.8124,171.4864,188.7062,0,U,38761,999,11761,.62608139E-3,.30567E-3,0
CP5,2012-048F,2026-06-25T05:59:25.945440,15.27886369,.00773234,64.6436,125.9401,173.6714,186.5412,0,U,38763,999,11799,.41655731E-3,.12237E-3,0
METOP-B,2012-049A,2026-06-25T06:49:48.994176,14.21441366,.00017275,98.6500,227.6222,356.4356,3.6809,0,U,38771,999,71441,.61844968E-4,.92E-6,0
SJ-9A,2012-056A,2026-06-25T07:33:33.755328,14.85492366,.00243151,97.6712,147.9726,228.3274,131.5861,0,U,38860,999,70079,.11292338E-3,.927E-5,0
COSMOS 2484 (RODNIK-S 6),2013-001C,2026-06-25T06:37:19.584768,12.42938891,.00265394,82.5011,216.8640,19.2716,340.9361,0,U,39059,999,60956,-.56759726E-3,-.69E-6,0
SARAL,2013-009A,2026-06-25T06:44:32.250048,14.32857794,.00006571,98.5558,2.7456,242.5436,117.5682,0,U,39086,999,69676,.5217327E-4,.99E-6,0
AAUSAT 3,2013-009B,2026-06-25T07:27:23.232384,14.39948959,.00113065,98.3704,359.9196,181.3678,178.7482,0,U,39087,999,69834,.2131213E-3,.628E-5,0
STRAND-1,2013-009E,2026-06-24T22:09:29.792736,14.37167384,.00081472,98.3924,355.9672,200.1736,159.9130,0,U,39090,999,69817,.10253545E-3,.262E-5,0
BRITE-AUSTRIA,2013-009F,2026-06-25T06:54:20.778336,14.36545008,.00095329,98.3998,355.5230,210.0764,149.9877,0,U,39091,999,69821,.70844909E-4,.165E-5,0
UNIBRITE,2013-009G,2026-06-24T11:09:21.596256,14.36415834,.00084725,98.4037,354.8331,208.3036,151.7691,0,U,39092,999,69803,.6850472E-4,.158E-5,0
AIST-2 (RS43),2013-015D,2026-06-25T06:00:20.501856,15.26375928,.0018184,64.8684,230.9654,247.7437,112.1766,0,U,39133,999,72513,.20978887E-3,.5295E-4,0
GAOFEN-1,2013-018A,2026-06-25T07:56:02.719392,14.76543377,.00158085,97.9092,248.2333,237.8502,122.1175,0,U,39150,999,70944,.30397887E-4,.161E-5,0
NEE-01 PEGASO,2013-018B,2026-06-24T08:47:50.255232,14.93694125,.00135373,98.1231,319.7543,136.3925,223.8366,0,U,39151,999,71177,.21245148E-3,.2189E-4,0
TURKSAT-3USAT,2013-018C,2026-06-25T04:07:44.247360,14.96470569,.00129477,97.7927,266.9642,76.0563,284.2097,0,U,39152,999,71228,.28574411E-3,.319E-4,0
CUBEBUG-1 (CAPITAN BETO),2013-018D,2026-06-25T04:29:57.760512,14.97341815,.00130002,98.1666,336.4842,119.9893,240.2620,0,U,39153,999,71226,.34048002E-3,.3895E-4,0
PROBA-V,2013-021A,2026-06-25T04:50:44.026080,14.23598638,.00053791,98.3588,154.4130,105.0732,255.1043,0,U,39159,999,68225,.51921505E-4,.77E-6,0
ESTCUBE 1,2013-021C,2026-06-24T21:28:28.711200,14.81420874,.00079408,97.7290,229.8094,1.0462,359.0766,0,U,39161,999,70616,.18559056E-3,.1402E-4,0
ARIRANG-5 (KOMPSAT-5),2013-042A,2026-06-25T06:43:30.233856,15.04505089,.00051665,97.6194,2.8664,103.6806,256.4995,0,U,39227,999,70507,.58626219E-4,.76E-5,0
GONETS-M 5,2013-048A,2026-06-25T05:52:56.187264,12.42892128,.00164563,82.4836,338.3580,192.3103,167.7577,0,U,39249,999,57988,.15278993E-3,.31E-6,0
GONETS-M 7,2013-048C,2026-06-25T06:55:17.875776,12.42915004,.00172342,82.4903,341.2577,193.6400,166.4216,0,U,39251,999,57984,.44104858E-3,.71E-6,0
FENGYUN 3C,2013-052A,2026-06-25T05:48:23.114880,14.15756752,.00147794,98.4982,149.7470,5.1584,354.9740,0,U,39260,999,65970,.6542509E-4,.87E-6,0
CASSIOPE,2013-055A,2026-06-25T05:30:30.869280,15.25915569,.02897842,80.9142,56.9506,35.4281,326.5820,0,U,39265,999,66889,.57975766E-3,.53426E-3,-.259962E-6
APRIZESAT 7,2013-066A,2026-06-24T20:50:59.796096,14.91577638,.00356511,97.7710,128.9782,183.3363,176.7623,0,U,39416,999,68237,.98374538E-4,.94E-5,0
ZACUBE-1 (TSHEPISOSAT),2013-066B,2026-06-25T03:20:30.042240,15.01227074,.00418819,97.8051,138.5170,220.5392,139.2711,0,U,39417,999,68192,.23876065E-3,.3058E-4,0
APRIZESAT 8,2013-066K,2026-06-25T01:52:40.757664,14.87665274,.00443535,97.8222,123.4362,259.6873,99.9341,0,U,39425,999,68084,.93169151E-4,.805E-5,0
