{"format":"tle-catalog-v1","generatedAt":"2026-06-25T16:01:17.978Z","count":6895,"entries":[{"name":"AAUSAT 3","line1":"1 39087U 13009B   26176.31068556  .00000628  00000+0  21312-3 0  9993","line2":"2 39087  98.3704 359.9196 0011306 181.3678 178.7482 14.39948959698345"},{"name":"AIST-2 (RS43)","line1":"1 39133U 13015D   26176.25023729  .00005295  00000+0  20979-3 0  9991","line2":"2 39133  64.8684 230.9654 0018184 247.7437 112.1766 15.26375928725132"},{"name":"APRIZESAT 7","line1":"1 39416U 13066A   26175.86874764  .00000940  00000+0  98375-4 0  9998","line2":"2 39416  97.7710 128.9782 0035651 183.3363 176.7623 14.91577638682379"},{"name":"APRIZESAT 8","line1":"1 39425U 13066K   26176.07824951  .00000805  00000+0  93169-4 0  9991","line2":"2 39425  97.8222 123.4362 0044353 259.6873  99.9341 14.87665274680846"},{"name":"ARIRANG-3 (KOMPSAT-3)","line1":"1 38338U 12025B   26176.24436468  .00000386  00000+0  85937-4 0  9996","line2":"2 38338  98.1174 133.5654 0006821  89.3323 270.8660 14.62212513752526"},{"name":"ARIRANG-5 (KOMPSAT-5)","line1":"1 39227U 13042A   26176.28021104  .00000760  00000+0  58626-4 0  9996","line2":"2 39227  97.6194   2.8664 0005166 103.6806 256.4995 15.04505089705075"},{"name":"BEIDOU-2 M4 (C12)","line1":"1 38251U 12018B   26174.56448814 -.00000108  00000+0  00000+0 0  9999","line2":"2 38251  55.6516 303.8740 0011628 274.1207  85.7373  1.86229575 96064"},{"name":"BRITE-AUSTRIA","line1":"1 39091U 13009F   26176.28774049  .00000165  00000+0  70845-4 0  9997","line2":"2 39091  98.3998 355.5230 0009532 210.0764 149.9877 14.36545008698219"},{"name":"CASSIOPE","line1":"1 39265U 13055A   26176.22952395  .00053426 -25996-6  57976-3 0  9993","line2":"2 39265  80.9142  56.9506 0289784  35.4281 326.5820 15.25915569668894"},{"name":"COSMOS 2484 (RODNIK-S 6)","line1":"1 39059U 13001C   26176.27592112 -.00000069  00000+0 -56760-3 0  9995","line2":"2 39059  82.5011 216.8640 0026539  19.2716 340.9361 12.42938891609562"},{"name":"CP5","line1":"1 38763U 12048F   26176.24960585  .00012237  00000+0  41656-3 0  9992","line2":"2 38763  64.6436 125.9401 0077323 173.6714 186.5412 15.27886369117990"},{"name":"CSSWE","line1":"1 38761U 12048D   26176.06147946  .00030567  00000+0  62608-3 0  9994","line2":"2 38761  64.6633  66.8124 0045807 171.4864 188.7062 15.44820503117617"},{"name":"CUBEBUG-1 (CAPITAN BETO)","line1":"1 39153U 13018D   26176.18747408  .00003895  00000+0  34048-3 0  9991","line2":"2 39153  98.1666 336.4842 0013000 119.9893 240.2620 14.97341815712260"},{"name":"ESTCUBE 1","line1":"1 39161U 13021C   26175.89477675  .00001402  00000+0  18559-3 0  9998","line2":"2 39161  97.7290 229.8094 0007940   1.0462 359.0766 14.81420874706168"},{"name":"FENGYUN 3C","line1":"1 39260U 13052A   26176.24193420  .00000087  00000+0  65425-4 0  9998","line2":"2 39260  98.4982 149.7470 0014779   5.1584 354.9740 14.15756752659707"},{"name":"GAOFEN-1","line1":"1 39150U 13018A   26176.33058703  .00000161  00000+0  30398-4 0  9996","line2":"2 39150  97.9092 248.2333 0015808 237.8502 122.1175 14.76543377709440"},{"name":"GONETS-M 5","line1":"1 39249U 13048A   26176.24509476  .00000031  00000+0  15279-3 0  9992","line2":"2 39249  82.4836 338.3580 0016456 192.3103 167.7577 12.42892128579887"},{"name":"GONETS-M 7","line1":"1 39251U 13048C   26176.28840134  .00000071  00000+0  44105-3 0  9992","line2":"2 39251  82.4903 341.2577 0017234 193.6400 166.4216 12.42915004579844"},{"name":"HORYU-2","line1":"1 38340U 12025D   26176.29197068  .00003178  00000+0  32650-3 0  9999","line2":"2 38340  98.2179 309.5603 0008809 149.3303 210.8431 14.91111712749939"},{"name":"METOP-B","line1":"1 38771U 12049A   26176.28459484  .00000092  00000+0  61845-4 0  9996","line2":"2 38771  98.6500 227.6222 0001727 356.4356   3.6809 14.21441366714413"},{"name":"NEE-01 PEGASO","line1":"1 39151U 13018B   26175.36655388  .00002189  00000+0  21245-3 0  9993","line2":"2 39151  98.1231 319.7543 0013537 136.3925 223.8366 14.93694125711772"},{"name":"PROBA-V","line1":"1 39159U 13021A   26176.20189845  .00000077  00000+0  51922-4 0  9999","line2":"2 39159  98.3588 154.4130 0005379 105.0732 255.1043 14.23598638682252"},{"name":"SARAL","line1":"1 39086U 13009A   26176.28092882  .00000099  00000+0  52173-4 0  9999","line2":"2 39086  98.5558   2.7456 0000657 242.5436 117.5682 14.32857794696760"},{"name":"SJ-9A","line1":"1 38860U 12056A   26176.31497402  .00000927  00000+0  11292-3 0  9996","line2":"2 38860  97.6712 147.9726 0024315 228.3274 131.5861 14.85492366700794"},{"name":"STRAND-1","line1":"1 39090U 13009E   26175.92326149  .00000262  00000+0  10254-3 0  9995","line2":"2 39090  98.3924 355.9672 0008147 200.1736 159.9130 14.37167384698177"},{"name":"SUOMI NPP","line1":"1 37849U 11061A   26176.23497863  .00000063  00000+0  51113-4 0  9997","line2":"2 37849  98.7954 117.0560 0001073 344.6382  15.4761 14.19518984759584"},{"name":"TURKSAT-3USAT","line1":"1 39152U 13018C   26176.17203990  .00003190  00000+0  28574-3 0  9997","line2":"2 39152  97.7927 266.9642 0012947  76.0563 284.2097 14.96470569712281"},{"name":"UNIBRITE","line1":"1 39092U 13009G   26175.46483329  .00000158  00000+0  68505-4 0  9997","line2":"2 39092  98.4037 354.8331 0008472 208.3036 151.7691 14.36415834698031"},{"name":"YAOGAN-12","line1":"1 37875U 11066B   26176.26232153  .00007773  00000+0  29832-3 0  9990","line2":"2 37875  97.1144 214.4514 0009626 185.2194 174.8947 15.26688286813275"},{"name":"ZACUBE-1 (TSHEPISOSAT)","line1":"1 39417U 13066B   26176.13923660  .00003058  00000+0  23876-3 0  9996","line2":"2 39417  97.8051 138.5170 0041881 220.5392 139.2711 15.01227074681925"}]}